{
    "links": {
        "self": "http://www.neowsapp.com/rest/v1/neo/3825630?api_key=iIulBulltgU6a56xZRHN4H3l9WmuAYTsLGpBGhQ2"
    },
    "id": "3825630",
    "neo_reference_id": "3825630",
    "name": "(2018 NN3)",
    "designation": "2018 NN3",
    "nasa_jpl_url": "http://ssd.jpl.nasa.gov/sbdb.cgi?sstr=3825630",
    "absolute_magnitude_h": 23.6,
    "estimated_diameter": {
        "kilometers": {
            "estimated_diameter_min": 0.0506471459,
            "estimated_diameter_max": 0.1132504611
        },
        "meters": {
            "estimated_diameter_min": 50.6471458835,
            "estimated_diameter_max": 113.2504610618
        },
        "miles": {
            "estimated_diameter_min": 0.0314706677,
            "estimated_diameter_max": 0.0703705522
        },
        "feet": {
            "estimated_diameter_min": 166.1651821003,
            "estimated_diameter_max": 371.5566426699
        }
    },
    "is_potentially_hazardous_asteroid": false,
    "close_approach_data": [
        {
            "close_approach_date": "2018-07-30",
            "close_approach_date_full": "2018-Jul-30 21:45",
            "epoch_date_close_approach": 1532987100000,
            "relative_velocity": {
                "kilometers_per_second": "16.983422854",
                "kilometers_per_hour": "61140.3222743248",
                "miles_per_hour": "37990.2185820658"
            },
            "miss_distance": {
                "astronomical": "0.1052896903",
                "lunar": "40.9576895267",
                "kilometers": "15751113.401839661",
                "miles": "9787288.0253268818"
            },
            "orbiting_body": "Earth"
        }
    ],
    "orbital_data": {
        "orbit_id": "5",
        "orbit_determination_date": "2018-08-12 07:05:29",
        "first_observation_date": "2018-07-10",
        "last_observation_date": "2018-08-09",
        "data_arc_in_days": 30,
        "observations_used": 27,
        "orbit_uncertainty": "8",
        "minimum_orbit_intersection": ".105222",
        "jupiter_tisserand_invariant": "3.446",
        "epoch_osculation": "2458311.5",
        "eccentricity": ".5817543185494882",
        "semi_major_axis": "2.097806348461356",
        "inclination": "20.80416996697635",
        "ascending_node_longitude": "295.62683823",
        "orbital_period": "1109.80459827804",
        "perihelion_distance": ".8773984457634296",
        "perihelion_argument": "73.54807213393207",
        "aphelion_distance": "3.318214251159282",
        "perihelion_time": "2458377.222792438478",
        "mean_anomaly": "338.6807467597783",
        "mean_motion": ".3243814276482291",
        "equinox": "J2000",
        "orbit_class": {
            "orbit_class_type": "APO",
            "orbit_class_description": "Near-Earth asteroid orbits which cross the Earth’s orbit similar to that of 1862 Apollo",
            "orbit_class_range": "a (semi-major axis) > 1.0 AU; q (perihelion) < 1.017 AU"
        }
    },
    "is_sentry_object": false
}